OSCAR III [-]           
1 01293U 65016F   08237.85423436  .00000040  00000-0  58535-4 0  3222
2 01293  70.0704  91.8179 0019274 211.1867 148.8102 14.04654773218195
AO-5 [-]                
1 04321U 70008B   08237.55551410 -.00000031  00000-0  10000-3 0   441
2 04321 102.1272 237.0567 0027679 180.9277 179.1745 12.52154152763639
AO-6 [-]                
1 06236U 72082B   08236.91844129 -.00000027  00000-0  10000-3 0   448
2 06236 101.4138 256.1321 0004238 111.0119 249.1407 12.53074698640178
AO-7 [P]                
1 07530U 74089B   08237.12911911 -.00000027  00000-0  10000-3 0  2591
2 07530 101.4620 266.3434 0012237 129.0818 231.1346 12.53574062545495
AO-8 [-]                
1 10703U 78026B   08237.86204790  .00000362  00000-0  28061-3 0  2488
2 10703  98.8757 287.2655 0005477 271.6931  88.3606 13.98822684554594
AO-10 [-]               
1 14129U 83058B   08237.18925205 -.00000030  00000-0  10000-3 0  5492
2 14129  26.0264 199.0635 5968817 151.1752 261.9625  2.05868359161531
UO-11 [P]               
1 14781U 84021B   08234.03728250 -.00000058  00000-0 -42562-6 0  7516
2 14781  98.1496 269.0260 0008301 219.9405 140.1172 14.79659078313444
FO-12 [-]               
1 16909U 86061B   08236.77247660 -.00000083  00000-0  10000-3 0  4355
2 16909  50.0175 356.2124 0011464 168.5128 191.5970 12.44451777  1943
UO-14 [-]               
1 20437U 90005B   08237.70178427 -.00000009  00000-0  12313-4 0  7178
2 20437  98.2941 202.1846 0010909 334.7928  25.2725 14.31522316970635
UO-15 [-]               
1 20438U 90005C   08237.90022811 -.00000027  00000-0  56480-5 0  2052
2 20438  98.3527 193.9558 0010213   0.0539   0.0642 14.30429053970118
AO-16 [P]               
1 20439U 90005D   08236.99668779 -.00000019  00000-0  83341-5 0  4015
2 20439  98.2360 213.6135 0010785 340.5657  19.5113 14.31800754970627
DO-17 [-]               
1 20440U 90005E   08237.40955365  .00000002  00000-0  15946-4 0  1039
2 20440  98.2161 219.3942 0010699 335.4138  24.6542 14.32103494970810
WO-18 [-]               
1 20441U 90005F   08237.71354113 -.00000005  00000-0  13203-4 0  6121
2 20441  98.2216 218.2217 0011375 337.5928  22.4753 14.31869405970794
LO-19 [P]               
1 20442U 90005G   08237.66159313 -.00000017  00000-0  88352-5 0  3253
2 20442  98.2063 222.5720 0011668 335.7553  24.3053 14.32038939970875
FO-20 [-]               
1 20480U 90013C   08237.47336397 -.00000042  00000-0 -30981-4 0  9194
2 20480  99.0325 207.6133 0540870 122.1740 243.3009 12.83357938868841
AO-21 [-]               
1 21087U 91006A   08236.70331397  .00000039  00000-0  25088-4 0   491
2 21087  82.9390 266.3658 0036350  36.3314 324.0294 13.75036083881539
RS-12 & RS-13 [-]       
1 21089U 91007A   08237.11087142  .00000041  00000-0  26514-4 0  9303
2 21089  82.9229 127.1356 0030847  76.9671 283.4914 13.74481855880381
UO-22 [-]               
1 21575U 91050B   08237.90097308  .00000010  00000-0  16955-4 0  3570
2 21575  98.4005 185.6439 0007167 181.0213 179.0969 14.39646991898076
KO-23 [-]               
1 22077U 92052B   08237.71310970 -.00000037  00000-0  10000-3 0  5175
2 22077  66.0816 227.5741 0002348 351.7605   8.3377 12.86445312753389
AO-24 [-]               
1 22654U 93031B   08235.61873625 -.00000111  00000-0  10000-3 0  1700
2 22654   5.3068 342.9402 2894077 143.5341 240.3221  1.42205781 74875
AO-27 [+]               
1 22825U 93061C   08237.73783689 -.00000108  00000-0 -25927-4 0   484
2 22825  98.3903 195.2091 0009252  61.6180 298.5922 14.29244509777569
IO-26 [P]               
1 22826U 93061D   08237.49997208 -.00000015  00000-0  10409-4 0  7552
2 22826  98.3833 195.8594 0009894  58.1240 302.0906 14.29494493777625
KO-25 [-]               
1 22828U 93061F   08237.45677743 -.00000009  00000-0  12840-4 0  9803
2 22828  98.3783 195.7910 0010470  35.7015 324.4864 14.29797592745885
PO-28 [+]               
1 22829U 93061G   08237.45303798 -.00000069  00000-0 -10476-4 0   193
2 22829  98.3722 196.9059 0010335  32.2318 327.9492 14.30194861777886
RS-15 [P]               
1 23439U 94085A   08236.86292246 -.00000039  00000-0  10000-3 0  1679
2 23439  64.8157  25.6085 0146915 109.9269 251.7548 11.27553025562592
FO-29 [P]               
1 24278U 96046B   08237.89819644 -.00000031  00000-0  37187-5 0  8475
2 24278  98.5813 145.1808 0351301  37.7937 324.7324 13.52939530593681
MO-30 [-]               
1 24305U 96052B   08237.91906126 -.00000004  00000-0 -20720-4 0  8945
2 24305  82.9330 213.1351 0030463   2.1222 358.0061 13.73560883600005
TO-31 [-]               
1 25396U 98043C   08237.22212029 -.00000046  00000-0 -20552-5 0  1879
2 25396  98.3710 274.0939 0003143  39.4523 320.6882 14.23760868526047
GO-32 [P]               
1 25397U 98043D   08237.09741156 -.00000147  00000-0 -46993-4 0  6797
2 25397  98.3589 268.8920 0002100  62.8352 297.3025 14.23146844525876
SO-33 [P]               
1 25509U 98061B   08235.52307203  .00000073  00000-0  79975-8 0  2702
2 25509  31.4358 301.2747 0355215 247.2210 109.0510 14.28221987513100
PO-34 [-]               
1 25520U 98064B   08237.93573685  .00000323  00000-0  61253-5 0   651
2 25520  28.4585  78.5033 0005015 310.9978  49.0182 15.17221025543611
ARISS [+]               
1 25544U 98067A   08238.17943287  .00006850  00000-0  57824-4 0  1195
2 25544  51.6431  22.2803 0008795  54.7965 296.5118 15.71121709559380
SO-35 [-]               
1 25636U 99008C   08237.43201594  .00000022  00000-0  13186-4 0   916
2 25636  96.4760 126.7308 0149622  81.6124 280.2008 14.43440384500290
UO-36 [-]               
1 25693U 99021A   08236.70537354 -.00000145  00000-0  56580-7 0  7113
2 25693  64.5587 309.7479 0036607 228.3065 131.4908 14.78718659503852
OO-38 [-]               
1 26063U 00004C   08237.37240491 -.00000019  00000-0  13657-4 0  2924
2 26063 100.1894 324.2726 0036995  18.0287 342.2202 14.35842149449357
SO-41 [-]               
1 26545U 00057A   08237.62543365  .00000014  00000-0  20875-4 0   484
2 26545  64.5595 311.3367 0037001 325.4637  34.4055 14.80524525427294
MO-46 [-]               
1 26548U 00057D   08237.33056011 -.00000015  00000-0  16413-4 0  1826
2 26548  64.5582 279.4138 0036311 314.5151  45.2992 14.83288159427929
SO-42 [-]               
1 26549U 00057E   08237.22349023  .00000035  00000-0  23974-4 0  1240
2 26549  64.5602 327.5787 0038143 332.4725  27.4384 14.79382252426930
AO-40 [-]               
1 26609U 00072B   08235.68284491 -.00000293  00000-0  10000-3 0  1061
2 26609   7.7003  65.1122 7929387 114.9091 341.8585  1.25584683 35878
NO-44 [P]               
1 26931U 01043C   08237.78044281  .00000054  00000-0  53303-4 0  9608
2 26931  67.0519 107.9522 0007334 264.3010  95.7248 14.29531822360214
NO-45 [-]               
1 26932U 01043D   08237.89537046 -.00000054  00000-0  11132-4 0  9624
2 26932  67.0514 107.5288 0007813 281.1308  78.8914 14.29590726360270
BO-47 & BO-48 [-]       
1 27422U 02021B   08237.81228960  .00000021  00000-0  25520-4 0  8325
2 27422  98.5496 317.5339 0012795  17.7181 342.4441 14.28457597327095
AO-49 [-]               
1 27605U 02058A   08238.07234903 -.00000034  00000-0  16835-4 0  7122
2 27605  64.5580 192.9120 0085645 266.8225  92.3078 14.72360806305344
SO-50 [+]               
1 27607U 02058C   08237.17784241 -.00000107  00000-0  58415-5 0  6816
2 27607  64.5576 207.1467 0086364 266.3589  92.7611 14.71374605304977
DTUSAT [-]              
1 27842U 03031C   08237.59173893 -.00000006  00000-0  17470-4 0  3607
2 27842  98.7117 245.9078 0008567 260.6706  99.3495 14.20942949267228
CO-55 [+]               
1 27844U 03031E   08237.68635188  .00000038  00000-0  38005-4 0  3802
2 27844  98.7174 245.0056 0008967 281.9697  78.0472 14.20593293267165
AAU CUBESAT [-]         
1 27846U 03031G   08237.59145902 -.00000006  00000-0  17556-4 0  3011
2 27846  98.7112 245.9017 0008600 260.8289  99.1878 14.20944075267221
CANX-1 [-]              
1 27847U 03031H   08237.59667001 -.00000014  00000-0  13662-4 0  3159
2 27847  98.7121 245.9032 0008609 258.7669 101.2510 14.20929446267173
CO-57 [+]               
1 27848U 03031J   08236.98924251  .00000030  00000-0  34454-4 0  3301
2 27848  98.7172 243.4015 0009255 289.1341  70.8845 14.20401513267034
RS-22 [+]               
1 27939U 03042A   08237.63365539  .00000036  00000-0  15969-4 0  5785
2 27939  97.9835 116.5700 0013603 352.8655   7.2352 14.63252939262205
AO-51 [+]               
1 28375U 04025K   08237.67059971 -.00000007  00000-0  10920-4 0  1817
2 28375  98.0686 258.3813 0083869 305.9078  53.4350 14.40616206218269
VO-52 [+]               
1 28650U 05017B   08237.21760386  .00000262  00000-0  39942-4 0   135
2 28650  97.7837 301.9429 0025993 279.2721  80.5609 14.81492812178677
UWE-1 [-]               
1 28892U 05043C   08237.97722227  .00000114  00000-0  33580-4 0  1305
2 28892  98.0847 129.9417 0017048 190.7841 169.2995 14.59654445150633
XO-53 [-]               
1 28894U 05043E   08237.45001595  .00000004  00000-0  10536-4 0  2448
2 28894  98.0871 129.6817 0017008 195.1694 164.8990 14.59630497150563
CO-58 [+]               
1 28895U 05043F   08237.25786196  .00000105  00000-0  31622-4 0  1028
2 28895  98.0888 129.6301 0017594 192.9562 167.1187 14.59691321150410
NCUBE-2 [-]             
1 28897U 05043H   08237.69418265  .00000101  00000-0  30608-4 0  6335
2 28897  98.0866 129.9802 0016651 193.7499 166.3261 14.59863866142766
CO-56 [P]               
1 28941U 06005C   08238.09716789  .00032949  27339-5  22724-3 0  3184
2 28941  98.1133 358.4042 0157126 149.9808 211.0450 15.59919023140774
PEHUENSAT 1 [+]         
1 29712U 07001D   08238.17498423  .00000398  00000-0  59034-4 0  7384
2 29712  97.8704 295.0509 0014606 153.2042 206.9914 14.80246655 87672
